CCSDS_OMM_VERS = 2.0
CREATION_DATE  = 
ORIGINATOR     = 

OBJECT_NAME    = STARLINK-36075
OBJECT_ID      = 2025-283AD
CENTER_NAME    = EARTH
REF_FRAME      = TEME
TIME_SYSTEM    = UTC
MEAN_ELEMENT_THEORY = SGP/SGP4

EPOCH          = 2025-12-29T20:00:01.999008
MEAN_MOTION    = 15.49651028
ECCENTRICITY   = .0001634
INCLINATION    = 53.1589
RA_OF_ASC_NODE = 349.3104
ARG_OF_PERICENTER = 100.8043
MEAN_ANOMALY   = 104.6200

EPHEMERIS_TYPE = 0
CLASSIFICATION_TYPE = U
NORAD_CAT_ID   = 66905
ELEMENT_SET_NO = 999
REV_AT_EPOCH   = 517
BSTAR          = -.36598E-1
MEAN_MOTION_DOT = -.182465E-1
MEAN_MOTION_DDOT = 0

CCSDS_OMM_VERS = 2.0
CREATION_DATE  = 
ORIGINATOR     = 

OBJECT_NAME    = 1998-067XS
OBJECT_ID      = 1998-067XS
CENTER_NAME    = EARTH
REF_FRAME      = TEME
TIME_SYSTEM    = UTC
MEAN_ELEMENT_THEORY = SGP/SGP4

EPOCH          = 2025-12-29T11:33:10.054368
MEAN_MOTION    = 15.51524554
ECCENTRICITY   = .00026175
INCLINATION    = 51.6326
RA_OF_ASC_NODE = 59.3347
ARG_OF_PERICENTER = 291.4544
MEAN_ANOMALY   = 68.6166

EPHEMERIS_TYPE = 0
CLASSIFICATION_TYPE = U
NORAD_CAT_ID   = 66906
ELEMENT_SET_NO = 999
REV_AT_EPOCH   = 421
BSTAR          = .6386376E-3
MEAN_MOTION_DOT = .38202E-3
MEAN_MOTION_DDOT = 0

CCSDS_OMM_VERS = 2.0
CREATION_DATE  = 
ORIGINATOR     = 

OBJECT_NAME    = 1998-067XT
OBJECT_ID      = 1998-067XT
CENTER_NAME    = EARTH
REF_FRAME      = TEME
TIME_SYSTEM    = UTC
MEAN_ELEMENT_THEORY = SGP/SGP4

EPOCH          = 2025-12-29T11:06:25.608960
MEAN_MOTION    = 15.53668810
ECCENTRICITY   = .0003831
INCLINATION    = 51.6312
RA_OF_ASC_NODE = 59.2117
ARG_OF_PERICENTER = 329.8125
MEAN_ANOMALY   = 30.2644

EPHEMERIS_TYPE = 0
CLASSIFICATION_TYPE = U
NORAD_CAT_ID   = 66907
ELEMENT_SET_NO = 999
REV_AT_EPOCH   = 421
BSTAR          = .14194081E-2
MEAN_MOTION_DOT = .9303E-3
MEAN_MOTION_DDOT = 0

CCSDS_OMM_VERS = 2.0
CREATION_DATE  = 
ORIGINATOR     = 

OBJECT_NAME    = 1998-067XU
OBJECT_ID      = 1998-067XU
CENTER_NAME    = EARTH
REF_FRAME      = TEME
TIME_SYSTEM    = UTC
MEAN_ELEMENT_THEORY = SGP/SGP4

EPOCH          = 2025-12-29T11:04:43.734720
MEAN_MOTION    = 15.53652804
ECCENTRICITY   = .00039154
INCLINATION    = 51.6310
RA_OF_ASC_NODE = 59.2030
ARG_OF_PERICENTER = 326.0773
MEAN_ANOMALY   = 33.9966

EPHEMERIS_TYPE = 0
CLASSIFICATION_TYPE = U
NORAD_CAT_ID   = 66908
ELEMENT_SET_NO = 999
REV_AT_EPOCH   = 421
BSTAR          = .12402145E-2
MEAN_MOTION_DOT = .81056E-3
MEAN_MOTION_DDOT = 0

CCSDS_OMM_VERS = 2.0
CREATION_DATE  = 
ORIGINATOR     = 

OBJECT_NAME    = SILVERSAT
OBJECT_ID      = 1998-067XV
CENTER_NAME    = EARTH
REF_FRAME      = TEME
TIME_SYSTEM    = UTC
MEAN_ELEMENT_THEORY = SGP/SGP4

EPOCH          = 2025-12-29T12:33:43.305696
MEAN_MOTION    = 15.54074653
ECCENTRICITY   = .0003909
INCLINATION    = 51.6308
RA_OF_ASC_NODE = 58.8658
ARG_OF_PERICENTER = 333.7603
MEAN_ANOMALY   = 26.3189

EPHEMERIS_TYPE = 0
CLASSIFICATION_TYPE = U
NORAD_CAT_ID   = 66909
ELEMENT_SET_NO = 999
REV_AT_EPOCH   = 422
BSTAR          = .15885E-2
MEAN_MOTION_DOT = .105899E-2
MEAN_MOTION_DDOT = 0

CCSDS_OMM_VERS = 2.0
CREATION_DATE  = 
ORIGINATOR     = 

OBJECT_NAME    = 1998-067XW
OBJECT_ID      = 1998-067XW
CENTER_NAME    = EARTH
REF_FRAME      = TEME
TIME_SYSTEM    = UTC
MEAN_ELEMENT_THEORY = SGP/SGP4

EPOCH          = 2025-12-29T10:59:11.639040
MEAN_MOTION    = 15.53909102
ECCENTRICITY   = .00035439
INCLINATION    = 51.6309
RA_OF_ASC_NODE = 59.1775
ARG_OF_PERICENTER = 303.1215
MEAN_ANOMALY   = 56.9435

EPHEMERIS_TYPE = 0
CLASSIFICATION_TYPE = U
NORAD_CAT_ID   = 66910
ELEMENT_SET_NO = 999
REV_AT_EPOCH   = 421
BSTAR          = .14242343E-2
MEAN_MOTION_DOT = .94181E-3
MEAN_MOTION_DDOT = 0

CCSDS_OMM_VERS = 2.0
CREATION_DATE  = 
ORIGINATOR     = 

OBJECT_NAME    = 1998-067XX
OBJECT_ID      = 1998-067XX
CENTER_NAME    = EARTH
REF_FRAME      = TEME
TIME_SYSTEM    = UTC
MEAN_ELEMENT_THEORY = SGP/SGP4

EPOCH          = 2025-12-29T10:51:19.423296
MEAN_MOTION    = 15.54577281
ECCENTRICITY   = .000328
INCLINATION    = 51.6308
RA_OF_ASC_NODE = 59.1419
ARG_OF_PERICENTER = 314.1979
MEAN_ANOMALY   = 45.8742

EPHEMERIS_TYPE = 0
CLASSIFICATION_TYPE = U
NORAD_CAT_ID   = 66911
ELEMENT_SET_NO = 999
REV_AT_EPOCH   = 420
BSTAR          = .1713E-2
MEAN_MOTION_DOT = .116506E-2
MEAN_MOTION_DDOT = 0

CCSDS_OMM_VERS = 2.0
CREATION_DATE  = 
ORIGINATOR     = 

OBJECT_NAME    = 1998-067XY
OBJECT_ID      = 1998-067XY
CENTER_NAME    = EARTH
REF_FRAME      = TEME
TIME_SYSTEM    = UTC
MEAN_ELEMENT_THEORY = SGP/SGP4

EPOCH          = 2025-12-29T11:16:06.656736
MEAN_MOTION    = 15.52878561
ECCENTRICITY   = .000386
INCLINATION    = 51.6325
RA_OF_ASC_NODE = 59.2573
ARG_OF_PERICENTER = 318.8171
MEAN_ANOMALY   = 41.2527

EPHEMERIS_TYPE = 0
CLASSIFICATION_TYPE = U
NORAD_CAT_ID   = 66912
ELEMENT_SET_NO = 999
REV_AT_EPOCH   = 420
BSTAR          = .1141E-2
MEAN_MOTION_DOT = .7238E-3
MEAN_MOTION_DDOT = 0

CCSDS_OMM_VERS = 2.0
CREATION_DATE  = 
ORIGINATOR     = 

OBJECT_NAME    = 2025-284A
OBJECT_ID      = 2025-284A
CENTER_NAME    = EARTH
REF_FRAME      = TEME
TIME_SYSTEM    = UTC
MEAN_ELEMENT_THEORY = SGP/SGP4

EPOCH          = 2025-12-23T02:34:46.438752
MEAN_MOTION    = 15.08893564
ECCENTRICITY   = .0013475
INCLINATION    = 80.4035
RA_OF_ASC_NODE = 116.7336
ARG_OF_PERICENTER = 259.6514
MEAN_ANOMALY   = 100.3189

EPHEMERIS_TYPE = 0
CLASSIFICATION_TYPE = U
NORAD_CAT_ID   = 66913
ELEMENT_SET_NO = 999
REV_AT_EPOCH   = 269
BSTAR          = .55263602E-3
MEAN_MOTION_DOT = .8748E-4
MEAN_MOTION_DDOT = 0

CCSDS_OMM_VERS = 2.0
CREATION_DATE  = 
ORIGINATOR     = 

OBJECT_NAME    = 2025-284B
OBJECT_ID      = 2025-284B
CENTER_NAME    = EARTH
REF_FRAME      = TEME
TIME_SYSTEM    = UTC
MEAN_ELEMENT_THEORY = SGP/SGP4

EPOCH          = 2025-12-16T06:51:11.417184
MEAN_MOTION    = 15.18985981
ECCENTRICITY   = .00081793
INCLINATION    = 80.4045
RA_OF_ASC_NODE = 125.2713
ARG_OF_PERICENTER = 234.9626
MEAN_ANOMALY   = 125.0834

EPHEMERIS_TYPE = 0
CLASSIFICATION_TYPE = U
NORAD_CAT_ID   = 66914
ELEMENT_SET_NO = 999
REV_AT_EPOCH   = 166
BSTAR          = .38444995E-3
MEAN_MOTION_DOT = .8068E-4
MEAN_MOTION_DDOT = 0

CCSDS_OMM_VERS = 2.0
CREATION_DATE  = 
ORIGINATOR     = 

OBJECT_NAME    = HULIANWANG DIGUI-105
OBJECT_ID      = 2025-285A
CENTER_NAME    = EARTH
REF_FRAME      = TEME
TIME_SYSTEM    = UTC
MEAN_ELEMENT_THEORY = SGP/SGP4

EPOCH          = 2025-12-30T01:55:00.240096
MEAN_MOTION    = 14.00240170
ECCENTRICITY   = .0002283
INCLINATION    = 50.0122
RA_OF_ASC_NODE = 46.7257
ARG_OF_PERICENTER = 319.8322
MEAN_ANOMALY   = 40.2412

EPHEMERIS_TYPE = 0
CLASSIFICATION_TYPE = U
NORAD_CAT_ID   = 66915
ELEMENT_SET_NO = 999
REV_AT_EPOCH   = 334
BSTAR          = .16264E-3
MEAN_MOTION_DOT = .92E-6
MEAN_MOTION_DDOT = 0

CCSDS_OMM_VERS = 2.0
CREATION_DATE  = 
ORIGINATOR     = 

OBJECT_NAME    = HULIANWANG DIGUI-106
OBJECT_ID      = 2025-285B
CENTER_NAME    = EARTH
REF_FRAME      = TEME
TIME_SYSTEM    = UTC
MEAN_ELEMENT_THEORY = SGP/SGP4

EPOCH          = 2025-12-27T10:30:20.132064
MEAN_MOTION    = 14.01851189
ECCENTRICITY   = .00049482
INCLINATION    = 50.0052
RA_OF_ASC_NODE = 57.4085
ARG_OF_PERICENTER = 327.7035
MEAN_ANOMALY   = 32.3565

EPHEMERIS_TYPE = 0
CLASSIFICATION_TYPE = U
NORAD_CAT_ID   = 66916
ELEMENT_SET_NO = 999
REV_AT_EPOCH   = 297
BSTAR          = .13438696E-3
MEAN_MOTION_DOT = .55E-6
MEAN_MOTION_DDOT = 0

